{"fetched_at":"2026-03-29T02:12:04Z","count":15717,"tles":[{"name":"GSAT0204 (GALILEO 8)","line1":"1 40545U 15017B   26086.34677115 -.00000097  00000+0  00000+0 0  9993","line2":"2 40545  56.8192 343.8470 0003314 290.4029  69.5952  1.70475336 30855","category":"GPS"}]}